C/2020 K2 (PANSTARRS),e,91.0297,288.3246,67.3220,16073,0.0000005,0.99944774,0.0000,08/05.6857/2020,2000,g  6.5,4.0
# From MPEC 2020-N31
C/2020 K3 (Leonard),e,128.7154,27.9288,62.6996,210.4151,0.0003229,0.99242709,0.0000,05/30.1237/2020,2000,g 14.5,4.0
# From MPEC 2020-N31
C/2020 K4 (PANSTARRS),e,125.9023,264.1044,310.2460,44.37471,0.0033343,0.96006423,0.5121,08/07.0/2020,2000,g 16.5,4.0
# From MPEC 2020-N31
C/2020 K5 (PANSTARRS),h,06/05.5225/2021,67.1760,86.1515,249.6063,1.001760,1.534952,2000,11.0,4.0
# From MPEC 2020-N31
C/2020 K6 (Rankin),e,103.6299,291.5300,43.9293,8901,0.0000012,0.99933938,0.0000,09/12.5498/2021,2000,g  8.0,4.0
# From MPEC 2020-N31
C/2020 K7 (PANSTARRS),e,32.0415,286.0932,358.1703,107.6289,0.0008827,0.94071065,0.2495,08/07.0/2020,2000,g  8.0,4.0
# From MPEC 2020-N31
C/2020 K8 (Catalina-ATLAS),h,09/14.5184/2020,31.4134,181.5201,260.0573,1.000247,0.474610,2000,15.0,3.2
# From MPEC 2020-N31
P/2020 K9 (Lemmon-PANSTARRS),e,23.2360,166.1551,198.0117,4.187580,0.1150163,0.32315585,337.8698,08/07.0/2020,2000,g 12.5,4.0
# From MPEC 2020-N31
P/2020 M1 (PANSTARRS),e,8.6332,142.9480,67.8775,5.089914,0.0858299,0.47721205,19.7236,08/07.0/2020,2000,g 14.5,4.0
# From MPEC 2020-N31
C/2020 M3 (ATLAS),e,23.5068,71.4048,328.1476,30.18342,0.0059436,0.95788823,359.5276,08/07.0/2020,2000,g 14.5,4.0
# From MPEC 2020-K19
A/2020 M4,e,160.1256,348.6297,104.6194,5675,0.0000023,0.99895108,0.0000,11/23.5875/2020,2000,g 14.5,2.0
# From MPEC 2020-K19
C/2020 M5 (ATLAS),e,93.2227,352.0982,126.3372,5791,0.0000022,0.99948118,0.0000,08/19.9104/2021,2000,g  9.0,4.0
# From MPEC 2020-K19
C/2020 N1 (PANSTARRS),h,03/12.2134/2021,29.7038,279.9827,186.7789,1.000523,1.320438,2000,12.5,4.0
# From MPEC 2020-K19
C/2020 N2 (ATLAS),e,161.0362,257.0568,331.1665,127.3947,0.0006855,0.98591560,0.0000,08/23.6243/2020,2000,g 16.0,3.2
# From MPEC 2020-K19
P/2020 O1 (Lemmon-PANSTARRS),e,5.2218,176.0020,104.6677,2.646506,0.2289258,0.12011303,21.9069,08/07.0/2020,2000,g 15.5,4.0
# From MPEC 2020-K19
C/2020 O2 (Amaral),e,71.8912,256.6302,9.3913,13884,0.0000006,0.99964676,0.0000,08/23.8772/2021,2000,g  8.0,3.2
# From MPEC 2020-K19
P/2020 O3 (PANSTARRS),e,8.4441,266.9185,77.6731,4.668253,0.0977175,0.10575240,345.8234,08/07.0/2020,2000,g 12.0,4.0
# From  98, 1083
1P/Halley,e,162.2992,58.3255,111.2646,17.87096,0.0130461,0.96617071,164.5932,08/07.0/2020,2000,g  4.0,6.0
# From MPC118097
2P/Encke,e,11.7646,334.5512,186.5635,2.215295,0.2989212,0.84800065,12.6009,08/07.0/2020,2000,g 11.5,6.0
# From MPEC 2015-A10
4P/Faye,e,8.0081,193.1349,206.8532,3.827889,0.1316028,0.57771557,307.5927,08/07.0/2020,2000,g  8.0,6.0
# From MPEC 2015-S97
6P/d'Arrest,e,19.5120,138.9340,178.0916,3.497835,0.1506625,0.61259873,298.7130,08/07.0/2020,2000,g  9.0,4.0
# From MPEC 2015-E14
7P/Pons-Winnecke,e,22.3641,93.3795,172.5755,3.414937,0.1561816,0.63853242,314.2247,08/07.0/2020,2000,g  9.0,4.0
# From MPC 75715
8P/Tuttle,e,54.9116,270.2046,207.4908,5.703332,0.0723621,0.82006892,332.0834,08/07.0/2020,2000,g  9.0,4.0
# From MPEC 2019-JE2
9P/Tempel,e,10.4718,68.7332,179.3180,3.147268,0.1765239,0.50947006,258.5313,08/07.0/2020,2000,g  9.0,4.0
# From MPC114607
10P/Tempel,e,12.0398,117.8101,195.5170,3.060664,0.1840690,0.53851049,317.7931,08/07.0/2020,2000,g  5.0,10.0
# From MPEC 2017-L52
11P/Tempel-Swift-LINEAR,e,14.4203,238.9188,167.9362,3.282994,0.1656910,0.57695813,341.5726,08/07.0/2020,2000,g  9.0,4.0
# From  27, 604
12P/Pons-Brooks,e,74.0796,255.7152,199.0401,17.09207,0.0139480,0.95429252,341.1269,08/07.0/2020,2000,g  5.0,6.0
# From  27, 604
13P/Olbers,e,44.6266,85.8533,64.5437,16.67646,0.0144727,0.92971576,339.3842,08/07.0/2020,2000,g  5.0,6.0
# From MPC100283
14P/Wolf,e,27.9031,202.0772,158.9797,4.259108,0.1121311,0.35665552,109.7594,08/07.0/2020,2000,g  5.5,12.0
# From MPC 92276
15P/Finlay,e,6.7977,13.7222,347.8362,3.504273,0.1502475,0.71697261,308.8303,08/07.0/2020,2000,g 12.0,4.0
# From MPC 92276
16P/Brooks,e,3.0108,138.8732,245.1380,3.659939,0.1407645,0.48687821,324.2400,08/07.0/2020,2000,g  7.5,10.0
# From MPC114607
17P/Holmes,e,19.0274,326.6260,24.4878,3.638480,0.1420117,0.42823508,332.0426,08/07.0/2020,2000,g 10.0,6.0
# From MPC 92984
19P/Borrelly,e,29.4014,74.4161,351.8136,3.605634,0.1439566,0.63842551,281.7544,08/07.0/2020,2000,g  4.5,10.0
# From MPC111773
21P/Giacobini-Zinner,e,32.0143,195.3638,172.8468,3.495999,0.1507811,0.71067294,105.0349,08/07.0/2020,2000,g  9.0,6.0
# From MPC 94283
22P/Kopff,e,4.7420,120.8372,162.9637,3.442819,0.1542882,0.54889925,269.2794,08/07.0/2020,2000,g  3.0,10.4
# From MPC 14747
23P/Brorsen-Metcalf,e,19.1348,312.4128,128.8254,16.95471,0.0141179,0.97102254,0.0000,08/11.4740/1989,2000,g 10.0,6.0
# From MPC110085
24P/Schaumasse,e,11.6615,79.3122,57.7727,4.058351,0.1205534,0.70861965,119.7763,08/07.0/2020,2000,g  6.5,14.0
# From MPC 94674
26P/Grigg-Skjellerup,e,22.4432,211.5388,2.1944,3.013949,0.1883650,0.64061964,127.2155,08/07.0/2020,2000,g 12.0,16.0
# From MPC 78188
27P/Crommelin,e,29.1352,250.5809,195.9926,9.189823,0.0353788,0.91797261,116.8115,08/07.0/2020,2000,g 12.0,8.0
# From MPEC 2020-N31
28P/Neujmin,e,14.3110,346.3421,347.4261,6.975071,0.0535034,0.77376489,348.3940,08/07.0/2020,2000,g  8.5,6.0
# From MPEC 2020-N31
29P/Schwassmann-Wachmann,e,9.3668,312.3752,48.3353,6.033656,0.0665018,0.04413649,33.9600,08/07.0/2020,2000,g  4.0,4.0
# From MPC110085
30P/Reinmuth,e,8.5350,118.9160,12.0865,3.700716,0.1384444,0.52554480,148.4940,08/07.0/2020,2000,g  9.5,6.0
# From MPC108597
31P/Schwassmann-Wachmann,e,4.5473,114.1147,18.2608,4.241039,0.1128485,0.19239775,44.9629,08/07.0/2020,2000,g  5.0,8.0
# From MPC 92276
32P/Comas Sola,e,9.9256,57.4484,53.4503,4.496717,0.1033620,0.55796520,219.4277,08/07.0/2020,2000,g  6.5,8.0
# From MPEC 2013-O31
33P/Daniel,e,22.3255,66.3523,20.6183,4.082740,0.1194749,0.45241735,173.7402,08/07.0/2020,2000,g 10.0,12.0
# From  15, 452
35P/Herschel-Rigollet,e,64.780,356.421,29.060,28.5674,0.006455,0.9735107,0.000,12/23.1834/2091,2000,g  9.0,4.0
# From MPC105240
36P/Whipple,e,9.9523,181.8623,200.7783,4.130834,0.1173944,0.26851766,7.9046,08/07.0/2020,2000,g  8.5,6.0
# From MPEC 2018-HA5
37P/Forbes,e,8.9573,314.5611,330.0867,3.459285,0.1531879,0.53411362,126.4880,08/07.0/2020,2000,g 10.5,4.8
# From MPEC 2018-S50
38P/Stephan-Oterma,e,18.3546,77.9922,359.5390,11.25345,0.0261081,0.85893479,16.5814,08/07.0/2020,2000,g  3.5,12.0
# From MPC115887
39P/Oterma,e,1.5612,299.2560,95.0751,7.406069,0.0489015,0.22397152,310.6229,08/07.0/2020,2000,g  7.0,6.0
# From MPC100283
40P/Vaisala,e,11.4698,133.7814,47.4625,4.950789,0.0894731,0.62993787,187.3536,08/07.0/2020,2000,g  5.5,12.0
# From MPC105240
41P/Tuttle-Giacobini-Kresak,e,9.2210,140.9950,62.2644,3.086127,0.1817956,0.66025997,220.4986,08/07.0/2020,2000,g 10.0,16.0
# From MPC 94283
42P/Neujmin,e,3.9894,150.1898,147.1749,4.872899,0.0916269,0.58546864,178.2190,08/07.0/2020,2000,g 13.0,6.0
# From MPC102956
43P/Wolf-Harrington,e,9.3860,244.4093,224.0533,4.307169,0.1102595,0.43858470,158.7695,08/07.0/2020,2000,g  8.0,6.0
# From MPEC 2020-HN5
44P/Reinmuth,e,5.8984,286.4820,58.1314,3.688700,0.1391215,0.42714077,273.1075,08/07.0/2020,2000,g  8.3,6.0
# From MPC103849
45P/Honda-Mrkos-Pajdusakova,e,4.3249,87.7022,327.9550,3.050161,0.1850206,0.81762123,244.0606,08/07.0/2020,2000,g 13.5,8.0
# From MPC114607
46P/Wirtanen,e,11.7438,82.1567,356.3633,3.091751,0.1812998,0.65832469,109.3727,08/07.0/2020,2000,g 14.0,6.0
# From NK 2718
47P/Ashbrook-Jackson,e,13.0348,356.9265,357.6031,4.125025,0.1176425,0.31795430,135.6948,08/07.0/2020,2000,g  9.0,4.0
# From MPEC 2015-M77
48P/Johnson,e,12.2082,110.1268,216.6185,3.500406,0.1504965,0.42736424,109.1866,08/07.0/2020,2000,g  9.0,4.0
# From MPEC 2015-M77
49P/Arend-Rigaux,e,19.0458,118.7974,332.9720,3.569930,0.1461216,0.59857325,110.1760,08/07.0/2020,2000,g  9.0,4.0
# From MPEC 2015-S97
50P/Arend,e,19.0980,355.1608,49.3380,4.089422,0.1191821,0.52859067,195.9792,08/07.0/2020,2000,g  9.5,6.0
# From NK 3013
51P-A/Harrington,e,5.4256,83.6726,269.2457,3.708180,0.1380266,0.54303689,251.5143,08/07.0/2020,2000,g 16.0,8.0
# From NK 3014
51P-A/Harrington,e,5.4249,83.6881,269.2064,3.709201,0.1379697,0.54310931,251.2581,08/07.0/2020,2000,g 10.0,8.0
# From NK 3014
51P-A/Harrington,e,5.4249,83.6881,269.2064,3.709183,0.1379707,0.54310622,251.2613,08/07.0/2020,2000,g 10.0,8.0
# From MPEC 2015-L08
51P-D/Harrington,e,5.4263,83.6781,269.1958,3.708269,0.1380217,0.54305111,251.5094,08/07.0/2020,2000,g 16.0,8.0
# From MPEC 2015-L08
51P-D/Harrington,e,5.4263,83.6771,269.1966,3.708257,0.1380223,0.54305168,251.5145,08/07.0/2020,2000,g 16.0,8.0
# From NK 3013
51P-D/Harrington,e,5.4256,83.6729,269.2454,3.708179,0.1380267,0.54303708,251.5144,08/07.0/2020,2000,g 16.0,8.0
# From NK 3013
51P-D/Harrington,e,5.4256,83.6729,269.2454,3.708179,0.1380267,0.54303721,251.5144,08/07.0/2020,2000,g 16.0,8.0
# From MPC 88330
52P/Harrington-Abell,e,10.2314,336.8382,139.5982,3.862431,0.1298413,0.53978787,304.9137,08/07.0/2020,2000,g 13.5,6.0
# From MPC100283
53P/Van Biesbroeck,e,6.6083,148.8310,134.4123,5.424869,0.0780046,0.55225221,121.6099,08/07.0/2020,2000,g  7.7,4.8
# From MPC 89011
54P/de Vico-Swift-NEAT,e,6.0619,358.8144,1.7629,3.792942,0.1334258,0.42550131,161.3150,08/07.0/2020,2000,g  9.0,4.0
# From MPC 31070
55P/Tempel-Tuttle,e,162.3853,235.4043,172.5352,10.34943,0.0296026,0.90662603,243.4923,08/07.0/2020,2000,g  9.0,4.0
# From MPC101100
56P/Slaughter-Burnham,e,8.1582,345.9835,44.0121,5.071660,0.0862937,0.50688862,127.7639,08/07.0/2020,2000,g  8.5,6.0
# From MPC 98565
57P/du Toit-Neujmin-Delporte,e,2.8504,188.7777,115.2307,3.446772,0.1540229,0.50078260,292.7814,08/07.0/2020,2000,g 12.5,6.0
# From MPEC 2020-HN5
58P/Jackson-Neujmin,e,13.1064,159.0819,200.4622,4.083388,0.1194464,0.66265739,8.5457,08/07.0/2020,2000,g  5.5,10.0
# From MPC111774
59P/Kearns-Kwee,e,9.3415,312.8341,127.6060,4.489078,0.1036259,0.47485953,71.5546,08/07.0/2020,2000,g  7.0,6.0
# From MPEC 2015-M77
60P/Tsuchinshan,e,3.6029,267.5889,216.7885,3.517791,0.1493823,0.53691085,90.3552,08/07.0/2020,2000,g  9.0,4.0
# From MPEC 2015-Q71
